{
    "links": {
        "self": "http://www.neowsapp.com/rest/v1/neo/3838125?api_key=iIulBulltgU6a56xZRHN4H3l9WmuAYTsLGpBGhQ2"
    },
    "id": "3838125",
    "neo_reference_id": "3838125",
    "name": "(2019 CP1)",
    "designation": "2019 CP1",
    "nasa_jpl_url": "http://ssd.jpl.nasa.gov/sbdb.cgi?sstr=3838125",
    "absolute_magnitude_h": 25.0,
    "estimated_diameter": {
        "kilometers": {
            "estimated_diameter_min": 0.02658,
            "estimated_diameter_max": 0.0594346868
        },
        "meters": {
            "estimated_diameter_min": 26.58,
            "estimated_diameter_max": 59.4346868419
        },
        "miles": {
            "estimated_diameter_min": 0.0165160412,
            "estimated_diameter_max": 0.0369309908
        },
        "feet": {
            "estimated_diameter_min": 87.2047272,
            "estimated_diameter_max": 194.9956979785
        }
    },
    "is_potentially_hazardous_asteroid": false,
    "close_approach_data": [
        {
            "close_approach_date": "2019-02-17",
            "close_approach_date_full": "2019-Feb-17 21:36",
            "epoch_date_close_approach": 1550439360000,
            "relative_velocity": {
                "kilometers_per_second": "7.5096605414",
                "kilometers_per_hour": "27034.7779490127",
                "miles_per_hour": "16798.3596650407"
            },
            "miss_distance": {
                "astronomical": "0.0738199972",
                "lunar": "28.7159789108",
                "kilometers": "11043314.344525964",
                "miles": "6861997.3386437432"
            },
            "orbiting_body": "Earth"
        },
        {
            "close_approach_date": "2144-02-24",
            "close_approach_date_full": "2144-Feb-24 09:52",
            "epoch_date_close_approach": 5495593920000,
            "relative_velocity": {
                "kilometers_per_second": "6.9460509557",
                "kilometers_per_hour": "25005.7834404624",
                "miles_per_hour": "15537.6213827695"
            },
            "miss_distance": {
                "astronomical": "0.0678940059",
                "lunar": "26.4107682951",
                "kilometers": "10156798.668407433",
                "miles": "6311142.0410032554"
            },
            "orbiting_body": "Earth"
        },
        {
            "close_approach_date": "2166-04-09",
            "close_approach_date_full": "2166-Apr-09 17:14",
            "epoch_date_close_approach": 6193732440000,
            "relative_velocity": {
                "kilometers_per_second": "15.6254332514",
                "kilometers_per_hour": "56251.5597049172",
                "miles_per_hour": "34952.5316399804"
            },
            "miss_distance": {
                "astronomical": "0.4656866464",
                "lunar": "181.1521054496",
                "kilometers": "69665730.388883168",
                "miles": "43288277.5595489984"
            },
            "orbiting_body": "Earth"
        },
        {
            "close_approach_date": "2179-02-03",
            "close_approach_date_full": "2179-Feb-03 00:49",
            "epoch_date_close_approach": 6598284540000,
            "relative_velocity": {
                "kilometers_per_second": "13.9529585826",
                "kilometers_per_hour": "50230.6508973229",
                "miles_per_hour": "31211.3730533949"
            },
            "miss_distance": {
                "astronomical": "0.3424910216",
                "lunar": "133.2290074024",
                "kilometers": "51235927.325483992",
                "miles": "31836528.9605914096"
            },
            "orbiting_body": "Earth"
        },
        {
            "close_approach_date": "2190-02-15",
            "close_approach_date_full": "2190-Feb-15 00:59",
            "epoch_date_close_approach": 6946477140000,
            "relative_velocity": {
                "kilometers_per_second": "8.6585150238",
                "kilometers_per_hour": "31170.6540856679",
                "miles_per_hour": "19368.2322567307"
            },
            "miss_distance": {
                "astronomical": "0.1261120259",
                "lunar": "49.0575780751",
                "kilometers": "18866090.456024833",
                "miles": "11722845.0138273754"
            },
            "orbiting_body": "Earth"
        }
    ],
    "orbital_data": {
        "orbit_id": "6",
        "orbit_determination_date": "2019-03-02 07:06:05",
        "first_observation_date": "2019-02-04",
        "last_observation_date": "2019-02-28",
        "data_arc_in_days": 24,
        "observations_used": 45,
        "orbit_uncertainty": "7",
        "minimum_orbit_intersection": ".0615752",
        "jupiter_tisserand_invariant": "4.473",
        "epoch_osculation": "2459000.5",
        "eccentricity": ".3033828862781527",
        "semi_major_axis": "1.499757078980308",
        "inclination": "11.28680007376909",
        "ascending_node_longitude": "326.8844965190187",
        "orbital_period": "670.8567712414532",
        "perihelion_distance": "1.044756447643171",
        "perihelion_argument": "194.4763454172747",
        "aphelion_distance": "1.954757710317445",
        "perihelion_time": "2459213.198549637581",
        "mean_anomaly": "245.8601699319069",
        "mean_motion": ".5366272137848477",
        "equinox": "J2000",
        "orbit_class": {
            "orbit_class_type": "AMO",
            "orbit_class_description": "Near-Earth asteroid orbits similar to that of 1221 Amor",
            "orbit_class_range": "1.017 AU < q (perihelion) < 1.3 AU"
        }
    },
    "is_sentry_object": false
}